ONEWEB-0371             
1 49297U 21090U   26133.01088026  .00000083  00000+0  17543-3 0  9996
2 49297  87.9146 311.9798 0001727  89.7719 270.3612 13.19725283221810
ONEWEB-0372             
1 49298U 21090V   26133.16225227 -.00000026  00000+0 -97139-4 0  9998
2 49298  87.9160 281.4271 0001884  96.9654 263.1694 13.20658549225216
ONEWEB-0373             
1 49299U 21090W   26133.11244687  .00000054  00000+0  10032-3 0  9990
2 49299  87.9157 281.4387 0001903 100.8038 259.3310 13.20869448226398
ONEWEB-0374             
1 49300U 21090X   26132.95229633 -.00000211  00000+0 -60237-3 0  9997
2 49300  87.8930 296.7262 0002375 101.3804 258.7592 13.14501299222932
ONEWEB-0375             
1 49301U 21090Y   26133.10035189 -.00000079  00000+0 -22547-3 0  9991
2 49301  87.9161 281.4319 0002390 105.6252 254.5146 13.20755512225898
ONEWEB-0376             
1 49302U 21090Z   26133.00928991  .00000063  00000+0  12491-3 0  9991
2 49302  87.9155 311.9782 0001765  85.1886 274.9449 13.19726618221818
ONEWEB-0377             
1 49303U 21090AA  26133.16252065 -.00000027  00000+0 -97522-4 0  9992
2 49303  87.9161 281.4212 0001857 104.0044 256.1296 13.20657899225894
ONEWEB-0378             
1 49304U 21090AB  26132.95613818  .00000186  00000+0  42577-3 0  9999
2 49304  87.9157 281.4691 0001965 100.6494 259.4860 13.20911863225136
ONEWEB-0379             
1 49305U 21090AC  26132.94754737 -.00000188  00000+0 -54130-3 0  9997
2 49305  87.8932 296.7382 0001961  95.6996 264.4358 13.14503672222930
ONEWEB-0380             
1 49306U 21090AD  26133.00612101  .00001298  00000+0  32104-2 0  9991
2 49306  87.9139 311.9874 0001890  98.9825 261.1522 13.19730216221785
ONEWEB-0381             
1 49307U 21090AE  26133.15910803 -.00000068  00000+0 -20040-3 0  9991
2 49307  87.9162 281.4264 0002134 100.9000 259.2374 13.20686544225207
ONEWEB-0382             
1 49308U 21090AF  26133.14592324 -.00000035  00000+0 -11830-3 0  9996
2 49308  87.9158 281.4239 0002222  99.0237 261.1148 13.20797663225197
ONEWEB-0383             
1 49309U 21090AG  26133.01733393 -.00000203  00000+0 -58079-3 0  9999
2 49309  87.8940 296.7135 0001984  93.3513 266.7844 13.14503483222973
ONEWEB-0384             
1 49310U 21090AH  26133.13555002  .00000048  00000+0  85887-4 0  9996
2 49310  87.9162 281.4694 0002388  97.2484 262.8921 13.20810848225207
ONEWEB-0385             
1 49311U 21090AJ  26133.13877764 -.00000092  00000+0 -25774-3 0  9998
2 49311  87.9160 281.4303 0002120  98.4779 261.6594 13.20643714225172
ONEWEB-0386             
1 49312U 21090AK  26133.15581793 -.00000021  00000+0 -83901-4 0  9994
2 49312  87.9169 281.4164 0002110  96.8824 263.2549 13.20717026225197
