[{"OBJECT_NAME":"ONEWEB-0371","OBJECT_ID":"2021-090U","EPOCH":"2026-05-13T00:15:40.054464","MEAN_MOTION":13.19725283,"ECCENTRICITY":0.0001727,"INCLINATION":87.9146,"RA_OF_ASC_NODE":311.9798,"ARG_OF_PERICENTER":89.7719,"MEAN_ANOMALY":270.3612,"EPHEMERIS_TYPE":0,"CLASSIFICATION_TYPE":"U","NORAD_CAT_ID":49297,"ELEMENT_SET_NO":999,"REV_AT_EPOCH":22181,"BSTAR":0.00017543000000000002,"MEAN_MOTION_DOT":8.3e-07,"MEAN_MOTION_DDOT":0.0},{"OBJECT_NAME":"ONEWEB-0372","OBJECT_ID":"2021-090V","EPOCH":"2026-05-13T03:53:38.596128","MEAN_MOTION":13.20658549,"ECCENTRICITY":0.0001884,"INCLINATION":87.916,"RA_OF_ASC_NODE":281.4271,"ARG_OF_PERICENTER":96.9654,"MEAN_ANOMALY":263.1694,"EPHEMERIS_TYPE":0,"CLASSIFICATION_TYPE":"U","NORAD_CAT_ID":49298,"ELEMENT_SET_NO":999,"REV_AT_EPOCH":22521,"BSTAR":-9.7139e-05,"MEAN_MOTION_DOT":-2.6e-07,"MEAN_MOTION_DDOT":0.0},{"OBJECT_NAME":"ONEWEB-0373","OBJECT_ID":"2021-090W","EPOCH":"2026-05-13T02:41:55.409568","MEAN_MOTION":13.20869448,"ECCENTRICITY":0.0001903,"INCLINATION":87.9157,"RA_OF_ASC_NODE":281.4387,"ARG_OF_PERICENTER":100.8038,"MEAN_ANOMALY":259.331,"EPHEMERIS_TYPE":0,"CLASSIFICATION_TYPE":"U","NORAD_CAT_ID":49299,"ELEMENT_SET_NO":999,"REV_AT_EPOCH":22639,"BSTAR":0.00010032,"MEAN_MOTION_DOT":5.4e-07,"MEAN_MOTION_DDOT":0.0},{"OBJECT_NAME":"ONEWEB-0374","OBJECT_ID":"2021-090X","EPOCH":"2026-05-12T22:51:18.402912","MEAN_MOTION":13.14501299,"ECCENTRICITY":0.0002375,"INCLINATION":87.893,"RA_OF_ASC_NODE":296.7262,"ARG_OF_PERICENTER":101.3804,"MEAN_ANOMALY":258.7592,"EPHEMERIS_TYPE":0,"CLASSIFICATION_TYPE":"U","NORAD_CAT_ID":49300,"ELEMENT_SET_NO":999,"REV_AT_EPOCH":22293,"BSTAR":-0.00060237,"MEAN_MOTION_DOT":-2.11e-06,"MEAN_MOTION_DDOT":0.0},{"OBJECT_NAME":"ONEWEB-0375","OBJECT_ID":"2021-090Y","EPOCH":"2026-05-13T02:24:30.403296","MEAN_MOTION":13.20755512,"ECCENTRICITY":0.000239,"INCLINATION":87.9161,"RA_OF_ASC_NODE":281.4319,"ARG_OF_PERICENTER":105.6252,"MEAN_ANOMALY":254.5146,"EPHEMERIS_TYPE":0,"CLASSIFICATION_TYPE":"U","NORAD_CAT_ID":49301,"ELEMENT_SET_NO":999,"REV_AT_EPOCH":22589,"BSTAR":-0.00022547000000000002,"MEAN_MOTION_DOT":-7.9e-07,"MEAN_MOTION_DDOT":0.0},{"OBJECT_NAME":"ONEWEB-0376","OBJECT_ID":"2021-090Z","EPOCH":"2026-05-13T00:13:22.648224","MEAN_MOTION":13.19726618,"ECCENTRICITY":0.0001765,"INCLINATION":87.9155,"RA_OF_ASC_NODE":311.9782,"ARG_OF_PERICENTER":85.1886,"MEAN_ANOMALY":274.9449,"EPHEMERIS_TYPE":0,"CLASSIFICATION_TYPE":"U","NORAD_CAT_ID":49302,"ELEMENT_SET_NO":999,"REV_AT_EPOCH":22181,"BSTAR":0.00012491,"MEAN_MOTION_DOT":6.3e-07,"MEAN_MOTION_DDOT":0.0},{"OBJECT_NAME":"ONEWEB-0377","OBJECT_ID":"2021-090AA","EPOCH":"2026-05-13T03:54:01.784160","MEAN_MOTION":13.20657899,"ECCENTRICITY":0.0001857,"INCLINATION":87.9161,"RA_OF_ASC_NODE":281.4212,"ARG_OF_PERICENTER":104.0044,"MEAN_ANOMALY":256.1296,"EPHEMERIS_TYPE":0,"CLASSIFICATION_TYPE":"U","NORAD_CAT_ID":49303,"ELEMENT_SET_NO":999,"REV_AT_EPOCH":22589,"BSTAR":-9.7522e-05,"MEAN_MOTION_DOT":-2.7e-07,"MEAN_MOTION_DDOT":0.0},{"OBJECT_NAME":"ONEWEB-0378","OBJECT_ID":"2021-090AB","EPOCH":"2026-05-12T22:56:50.338752","MEAN_MOTION":13.20911863,"ECCENTRICITY":0.0001965,"INCLINATION":87.9157,"RA_OF_ASC_NODE":281.4691,"ARG_OF_PERICENTER":100.6494,"MEAN_ANOMALY":259.486,"EPHEMERIS_TYPE":0,"CLASSIFICATION_TYPE":"U","NORAD_CAT_ID":49304,"ELEMENT_SET_NO":999,"REV_AT_EPOCH":22513,"BSTAR":0.00042577,"MEAN_MOTION_DOT":1.86e-06,"MEAN_MOTION_DDOT":0.0},{"OBJECT_NAME":"ONEWEB-0379","OBJECT_ID":"2021-090AC","EPOCH":"2026-05-12T22:44:28.092768","MEAN_MOTION":13.14503672,"ECCENTRICITY":0.0001961,"INCLINATION":87.8932,"RA_OF_ASC_NODE":296.7382,"ARG_OF_PERICENTER":95.6996,"MEAN_ANOMALY":264.4358,"EPHEMERIS_TYPE":0,"CLASSIFICATION_TYPE":"U","NORAD_CAT_ID":49305,"ELEMENT_SET_NO":999,"REV_AT_EPOCH":22293,"BSTAR":-0.0005413,"MEAN_MOTION_DOT":-1.88e-06,"MEAN_MOTION_DDOT":0.0},{"OBJECT_NAME":"ONEWEB-0380","OBJECT_ID":"2021-090AD","EPOCH":"2026-05-13T00:08:48.855264","MEAN_MOTION":13.19730216,"ECCENTRICITY":0.000189,"INCLINATION":87.9139,"RA_OF_ASC_NODE":311.9874,"ARG_OF_PERICENTER":98.9825,"MEAN_ANOMALY":261.1522,"EPHEMERIS_TYPE":0,"CLASSIFICATION_TYPE":"U","NORAD_CAT_ID":49306,"ELEMENT_SET_NO":999,"REV_AT_EPOCH":22178,"BSTAR":0.0032104,"MEAN_MOTION_DOT":1.298e-05,"MEAN_MOTION_DDOT":0.0},{"OBJECT_NAME":"ONEWEB-0381","OBJECT_ID":"2021-090AE","EPOCH":"2026-05-13T03:49:06.933792","MEAN_MOTION":13.20686544,"ECCENTRICITY":0.0002134,"INCLINATION":87.9162,"RA_OF_ASC_NODE":281.4264,"ARG_OF_PERICENTER":100.9,"MEAN_ANOMALY":259.2374,"EPHEMERIS_TYPE":0,"CLASSIFICATION_TYPE":"U","NORAD_CAT_ID":49307,"ELEMENT_SET_NO":999,"REV_AT_EPOCH":22520,"BSTAR":-0.0002004,"MEAN_MOTION_DOT":-6.8e-07,"MEAN_MOTION_DDOT":0.0},{"OBJECT_NAME":"ONEWEB-0382","OBJECT_ID":"2021-090AF","EPOCH":"2026-05-13T03:30:07.767936","MEAN_MOTION":13.20797663,"ECCENTRICITY":0.0002222,"INCLINATION":87.9158,"RA_OF_ASC_NODE":281.4239,"ARG_OF_PERICENTER":99.0237,"MEAN_ANOMALY":261.1148,"EPHEMERIS_TYPE":0,"CLASSIFICATION_TYPE":"U","NORAD_CAT_ID":49308,"ELEMENT_SET_NO":999,"REV_AT_EPOCH":22519,"BSTAR":-0.0001183,"MEAN_MOTION_DOT":-3.5e-07,"MEAN_MOTION_DDOT":0.0},{"OBJECT_NAME":"ONEWEB-0383","OBJECT_ID":"2021-090AG","EPOCH":"2026-05-13T00:24:57.651552","MEAN_MOTION":13.14503483,"ECCENTRICITY":0.0001984,"INCLINATION":87.894,"RA_OF_ASC_NODE":296.7135,"ARG_OF_PERICENTER":93.3513,"MEAN_ANOMALY":266.7844,"EPHEMERIS_TYPE":0,"CLASSIFICATION_TYPE":"U","NORAD_CAT_ID":49309,"ELEMENT_SET_NO":999,"REV_AT_EPOCH":22297,"BSTAR":-0.0005807900000000001,"MEAN_MOTION_DOT":-2.03e-06,"MEAN_MOTION_DDOT":0.0},{"OBJECT_NAME":"ONEWEB-0384","OBJECT_ID":"2021-090AH","EPOCH":"2026-05-13T03:15:11.521728","MEAN_MOTION":13.20810848,"ECCENTRICITY":0.0002388,"INCLINATION":87.9162,"RA_OF_ASC_NODE":281.4694,"ARG_OF_PERICENTER":97.2484,"MEAN_ANOMALY":262.8921,"EPHEMERIS_TYPE":0,"CLASSIFICATION_TYPE":"U","NORAD_CAT_ID":49310,"ELEMENT_SET_NO":999,"REV_AT_EPOCH":22520,"BSTAR":8.588700000000001e-05,"MEAN_MOTION_DOT":4.8e-07,"MEAN_MOTION_DDOT":0.0},{"OBJECT_NAME":"ONEWEB-0385","OBJECT_ID":"2021-090AJ","EPOCH":"2026-05-13T03:19:50.388096","MEAN_MOTION":13.20643714,"ECCENTRICITY":0.000212,"INCLINATION":87.916,"RA_OF_ASC_NODE":281.4303,"ARG_OF_PERICENTER":98.4779,"MEAN_ANOMALY":261.6594,"EPHEMERIS_TYPE":0,"CLASSIFICATION_TYPE":"U","NORAD_CAT_ID":49311,"ELEMENT_SET_NO":999,"REV_AT_EPOCH":22517,"BSTAR":-0.00025774,"MEAN_MOTION_DOT":-9.2e-07,"MEAN_MOTION_DDOT":0.0},{"OBJECT_NAME":"ONEWEB-0386","OBJECT_ID":"2021-090AK","EPOCH":"2026-05-13T03:44:22.669152","MEAN_MOTION":13.20717026,"ECCENTRICITY":0.000211,"INCLINATION":87.9169,"RA_OF_ASC_NODE":281.4164,"ARG_OF_PERICENTER":96.8824,"MEAN_ANOMALY":263.2549,"EPHEMERIS_TYPE":0,"CLASSIFICATION_TYPE":"U","NORAD_CAT_ID":49312,"ELEMENT_SET_NO":999,"REV_AT_EPOCH":22519,"BSTAR":-8.390100000000001e-05,"MEAN_MOTION_DOT":-2.1e-07,"MEAN_MOTION_DDOT":0.0}]